OBJECT_NAME,OBJECT_ID,EPOCH,MEAN_MOTION,ECCENTRICITY,INCLINATION,RA_OF_ASC_NODE,ARG_OF_PERICENTER,MEAN_ANOMALY,EPHEMERIS_TYPE,CLASSIFICATION_TYPE,NORAD_CAT_ID,ELEMENT_SET_NO,REV_AT_EPOCH,BSTAR,MEAN_MOTION_DOT,MEAN_MOTION_DDOT
TELSTAR 12V,2015-068A,2026-07-23T09:29:20.490720,1.00273022,.00024379,0.0132,337.3247,145.4042,305.7319,0,U,41036,999,3898,0,-.114E-5,0
ELEKTRO-L 2,2015-074A,2026-07-23T09:29:20.490720,1.00272680,.00006087,6.7828,70.0749,232.2610,126.6465,0,U,41105,999,3886,0,-.118E-5,0
COSMOS 2513,2015-075A,2026-07-22T03:08:42.612864,1.00271498,.00026064,0.0578,104.8586,343.9450,338.5084,0,U,41121,999,3889,0,-.135E-5,0
EXPRESS-AMU1,2015-082A,2026-07-23T13:09:23.170176,1.00270983,.0002527,0.0166,64.4296,58.2287,52.0389,0,U,41191,999,3863,0,.16E-5,0
GAOFEN-4,2015-083A,2026-07-21T14:23:34.672704,1.00270335,.00041624,0.4439,83.8614,121.1097,55.9718,0,U,41194,999,3887,0,-.333E-5,0
BELINTERSAT-1,2016-001A,2026-07-23T13:13:45.250752,1.00269927,.00017911,0.0327,235.2400,196.2701,119.7161,0,U,41238,999,3860,0,.112E-5,0
IRNSS-1E,2016-003A,2026-07-21T00:43:29.481312,1.00275296,.0019282,33.3051,59.2585,176.3074,185.9195,0,U,41241,999,3842,0,-.317E-5,0
EUTELSAT 9B,2016-005A,2026-07-23T13:01:38.911872,1.00269810,.00012413,0.0189,46.1369,64.6402,34.9051,0,U,41310,999,3848,0,.66E-6,0
SES-9,2016-013A,2026-07-23T13:30:01.004832,1.00271796,.000243,0.0185,326.6761,139.0579,146.3674,0,U,41380,999,3780,0,-.34E-5,0
EUTELSAT 65 WEST A,2016-014A,2026-07-23T12:40:25.946112,1.00271782,.00024309,0.0816,301.5892,174.7502,309.8430,0,U,41382,999,3789,0,-.271E-5,0
IRNSS-1F,2016-015A,2026-07-23T06:17:42.357120,1.00270531,.00178114,5.4366,95.9506,179.6499,152.2326,0,U,41384,999,3802,0,.157E-5,0
BEIDOU-2 IGSO-6,2016-021A,2026-06-26T02:38:38.671584,1.00258926,.0057558,60.2385,37.9495,231.0163,137.2672,0,U,41434,999,3757,0,-.145E-5,0
IRNSS-1G,2016-027A,2026-07-23T13:00:26.747136,1.00265450,.00057792,5.2833,96.6329,13.8468,155.4780,0,U,41469,999,3754,0,-.335E-5,0
JCSAT-2B,2016-028A,2026-07-23T13:42:59.760000,1.00272507,.00011513,0.0181,61.8798,42.7133,196.4604,0,U,41471,999,3749,0,-.16E-5,0
THAICOM 8,2016-031A,2026-07-23T13:21:31.819392,1.00272122,.00031108,0.0658,41.6564,37.7337,140.7675,0,U,41552,999,3708,0,-.116E-5,0
INTELSAT 31 (IS-31),2016-035A,2026-07-23T06:04:43.078368,1.00271399,.0000732,0.0098,300.6066,2.7170,353.7911,0,U,41581,999,3704,0,-.146E-5,0
BEIDOU-2 G7,2016-037A,2026-07-23T15:13:17.215392,1.00269906,.00061962,1.8083,69.5627,2.5879,208.0803,0,U,41586,999,725,0,-.35E-5,0
ABS-2A (MONGOLSAT-1),2016-038A,2026-07-23T09:55:03.027072,1.00271489,.00019134,0.0120,50.8315,24.3759,89.4047,0,U,41588,999,3707,0,-.79E-6,0
EUTELSAT 117 WEST B,2016-038B,2026-07-23T12:25:42.356640,1.00273398,.00001863,0.0064,119.4846,78.6023,172.5976,0,U,41589,999,3702,0,-.7E-7,0
BRISAT,2016-039A,2026-07-22T19:38:38.857920,1.00268989,.00020129,0.0108,24.7018,90.3568,270.6473,0,U,41591,999,3696,0,-.193E-5,0
ECHOSTAR 18,2016-039B,2026-07-23T02:25:39.965664,1.00273506,.00017166,0.0177,63.2385,56.2280,156.4281,0,U,41592,999,3698,0,-.278E-5,0
MUOS-5,2016-041A,2026-07-23T12:29:04.534368,1.00273800,.02000911,2.1275,302.3870,260.4838,180.5616,0,U,41622,999,3745,0,-.144E-5,0
TIANTONG-1 1,2016-048A,2026-07-23T13:28:01.195680,1.00271910,.00049997,3.9180,43.6854,59.1274,141.8776,0,U,41725,999,3663,0,-.315E-5,0
JCSAT-16,2016-050A,2026-07-23T05:06:53.022816,1.00271711,.00011336,0.0186,63.0482,52.1476,46.4199,0,U,41729,999,3643,0,-.246E-5,0
USA 270,2016-052A,2026-07-20T10:18:22.228416,1.00264644,.0009649,4.2794,76.7594,103.0391,39.0344,0,U,41744,999,2846,0,-.355E-5,0
USA 271,2016-052B,2026-07-14T02:57:21.919968,1.00268559,.0011085,4.2370,76.9135,165.9764,191.3847,0,U,41745,999,2818,0,-.3E-5,0
INTELSAT 36 (IS-36),2016-053A,2026-07-23T13:18:39.594816,1.00272577,.00021801,0.0121,39.7895,312.5927,217.0588,0,U,41747,999,3632,0,-.2E-6,0
INSAT-3DR,2016-054A,2026-07-23T13:20:09.450816,1.00271813,.00102399,0.0901,88.9489,180.2150,306.1426,0,U,41752,999,3618,0,-.72E-6,0
GSAT-18,2016-060A,2026-07-23T13:20:09.450816,1.00272446,.00054755,0.0552,91.3918,351.1097,132.7921,0,U,41793,999,3589,0,-.72E-6,0
SKY MUSTER 2 (NBN1B),2016-060B,2026-07-23T13:40:22.511136,1.00269604,.00018182,0.0211,57.7173,65.2754,168.2120,0,U,41794,999,3588,0,0,0
HIMAWARI-9,2016-064A,2026-07-23T06:48:39.388608,1.00270213,.00025294,0.0156,51.3157,127.9715,4.6463,0,U,41836,999,3557,0,0,0
SHIJIAN-17 (SJ-17),2016-065A,2026-07-20T19:08:48.266304,0.99868641,.0002108,5.8361,72.1969,41.8203,297.8793,0,U,41838,999,3553,0,.18E-6,0
