TELSTAR 12V             
1 41036U 15068A   26204.39537605 -.00000114  00000+0  00000+0 0  9991
2 41036   0.0132 337.3247 0002437 145.4042 305.7319  1.00273022 38980
ELEKTRO-L 2             
1 41105U 15074A   26204.39537605 -.00000118  00000+0  00000+0 0  9999
2 41105   6.7828  70.0749 0000608 232.2610 126.6465  1.00272680 38862
COSMOS 2513             
1 41121U 15075A   26203.13104876 -.00000135  00000+0  00000+0 0  9998
2 41121   0.0578 104.8586 0002606 343.9450 338.5084  1.00271498 38896
EXPRESS-AMU1            
1 41191U 15082A   26204.54818484  .00000160  00000+0  00000+0 0  9993
2 41191   0.0166  64.4296 0002527  58.2287  52.0389  1.00270983 38637
GAOFEN-4                
1 41194U 15083A   26202.59970686 -.00000333  00000+0  00000+0 0  9996
2 41194   0.4439  83.8614 0004162 121.1097  55.9718  1.00270335 38877
BELINTERSAT-1           
1 41238U 16001A   26204.55121818  .00000112  00000+0  00000+0 0  9993
2 41238   0.0327 235.2400 0001791 196.2701 119.7161  1.00269927 38601
IRNSS-1E                
1 41241U 16003A   26202.03020233 -.00000317  00000+0  00000+0 0  9997
2 41241  33.3051  59.2585 0019282 176.3074 185.9195  1.00275296 38420
EUTELSAT 9B             
1 41310U 16005A   26204.54281148  .00000066  00000+0  00000+0 0  9998
2 41310   0.0189  46.1369 0001241  64.6402  34.9051  1.00269810 38480
SES-9                   
1 41380U 16013A   26204.56251163 -.00000340  00000+0  00000+0 0  9996
2 41380   0.0185 326.6761 0002430 139.0579 146.3674  1.00271796 37808
EUTELSAT 65 WEST A      
1 41382U 16014A   26204.52807808 -.00000271  00000+0  00000+0 0  9991
2 41382   0.0816 301.5892 0002430 174.7502 309.8430  1.00271782 37890
IRNSS-1F                
1 41384U 16015A   26204.26229580  .00000157  00000+0  00000+0 0  9992
2 41384   5.4366  95.9506 0017811 179.6499 152.2326  1.00270531 38026
BEIDOU-2 IGSO-6         
1 41434U 16021A   26177.11016981 -.00000145  00000+0  00000+0 0  9995
2 41434  60.2385  37.9495 0057558 231.0163 137.2672  1.00258926 37578
IRNSS-1G                
1 41469U 16027A   26204.54197624 -.00000335  00000+0  00000+0 0  9992
2 41469   5.2833  96.6329 0005779  13.8468 155.4780  1.00265450 37542
JCSAT-2B                
1 41471U 16028A   26204.57152500 -.00000160  00000+0  00000+0 0  9999
2 41471   0.0181  61.8798 0001151  42.7133 196.4604  1.00272507 37493
THAICOM 8               
1 41552U 16031A   26204.55661828 -.00000116  00000+0  00000+0 0  9990
2 41552   0.0658  41.6564 0003110  37.7337 140.7675  1.00272122 37084
INTELSAT 31 (IS-31)     
1 41581U 16035A   26204.25327637 -.00000146  00000+0  00000+0 0  9993
2 41581   0.0098 300.6066 0000732   2.7170 353.7911  1.00271399 37043
BEIDOU-2 G7             
1 41586U 16037A   26204.63422703 -.00000350  00000+0  00000+0 0  9999
2 41586   1.8083  69.5627 0006196   2.5879 208.0803  1.00269906  7252
ABS-2A (MONGOLSAT-1)    
1 41588U 16038A   26204.41322948 -.00000079  00000+0  00000+0 0  9996
2 41588   0.0120  50.8315 0001913  24.3759  89.4047  1.00271489 37078
EUTELSAT 117 WEST B     
1 41589U 16038B   26204.51785135 -.00000007  00000+0  00000+0 0  9990
2 41589   0.0064 119.4846 0000186  78.6023 172.5976  1.00273398 37025
BRISAT                  
1 41591U 16039A   26203.81850530 -.00000193  00000+0  00000+0 0  9994
2 41591   0.0108  24.7018 0002012  90.3568 270.6473  1.00268989 36965
ECHOSTAR 18             
1 41592U 16039B   26204.10115701 -.00000278  00000+0  00000+0 0  9996
2 41592   0.0177  63.2385 0001716  56.2280 156.4281  1.00273506 36980
MUOS-5                  
1 41622U 16041A   26204.52019137 -.00000144  00000+0  00000+0 0  9997
2 41622   2.1275 302.3870 0200091 260.4838 180.5616  1.00273800 37457
TIANTONG-1 1            
1 41725U 16048A   26204.56112495 -.00000315  00000+0  00000+0 0  9993
2 41725   3.9180  43.6854 0004999  59.1274 141.8776  1.00271910 36634
JCSAT-16                
1 41729U 16050A   26204.21311369 -.00000246  00000+0  00000+0 0  9996
2 41729   0.0186  63.0482 0001133  52.1476  46.4199  1.00271711 36435
USA 270                 
1 41744U 16052A   26201.42942394 -.00000355  00000+0  00000+0 0  9994
2 41744   4.2794  76.7594 0009649 103.0391  39.0344  1.00264644 28461
USA 271                 
1 41745U 16052B   26195.12317037 -.00000300  00000+0  00000+0 0  9994
2 41745   4.2370  76.9135 0011085 165.9764 191.3847  1.00268559 28181
INTELSAT 36 (IS-36)     
1 41747U 16053A   26204.55462494 -.00000020  00000+0  00000+0 0  9992
2 41747   0.0121  39.7895 0002180 312.5927 217.0588  1.00272577 36326
INSAT-3DR               
1 41752U 16054A   26204.55566494 -.00000072  00000+0  00000+0 0  9991
2 41752   0.0901  88.9489 0010239 180.2150 306.1426  1.00271813 36182
GSAT-18                 
1 41793U 16060A   26204.55566494 -.00000072  00000+0  00000+0 0  9993
2 41793   0.0552  91.3918 0005475 351.1097 132.7921  1.00272446 35892
SKY MUSTER 2 (NBN1B)    
1 41794U 16060B   26204.56970499  .00000000  00000+0  00000+0 0  9999
2 41794   0.0211  57.7173 0001818  65.2754 168.2120  1.00269604 35880
HIMAWARI-9              
1 41836U 16064A   26204.28378922  .00000000  00000+0  00000+0 0  9992
2 41836   0.0156  51.3157 0002529 127.9715   4.6463  1.00270213 35577
SHIJIAN-17 (SJ-17)      
1 41838U 16065A   26201.79778086  .00000018  00000+0  00000+0 0  9992
2 41838   5.8361  72.1969 0002108  41.8203 297.8793  0.99868641 35534
